ONEWEB-0694             
1 56722U 23068N   24075.91875144  .00000034  00000+0  55570-4 0  9990
2 56722  87.9104  32.5879 0001991  98.5775 261.5582 13.16593694 44147
ONEWEB-0696             
1 56723U 23068P   24076.00420946 -.00000008  00000+0 -55867-4 0  9990
2 56723  87.8967  63.0471 0001983  76.8908 283.2443 13.15547131 41833
ONEWEB-0703             
1 56724U 23068Q   24076.01370410  .00000076  00000+0  16855-3 0  9998
2 56724  87.8966  63.0666 0002444  53.8833 306.2523 13.15546309 41723
ONEWEB-0721             
1 56725U 23068R   24075.37245918  .00003947  00000+0  46675-3 0  9994
2 56725  86.6816  15.2750 0008252 238.4194 121.6225 14.84379521 44595
